[{"CCSDS_OMM_VERS":"2.0","COMMENT":"GENERATED VIA SPACE-TRACK.ORG API","CREATION_DATE":"2018-02-27T23:24:29","ORIGINATOR":"18 SPCS","OBJECT_NAME":"UPSAT","OBJECT_ID":"1998-067LX","CENTER_NAME":"EARTH","REF_FRAME":"TEME","TIME_SYSTEM":"UTC","MEAN_ELEMENT_THEORY":"SGP4","EPOCH":"2018-02-27T13:24:29.942496","MEAN_MOTION":"15.67669911","ECCENTRICITY":"0.00026550","INCLINATION":"51.6352","RA_OF_ASC_NODE":"191.6147","ARG_OF_PERICENTER":"211.3974","MEAN_ANOMALY":"148.6864","EPHEMERIS_TYPE":"0","CLASSIFICATION_TYPE":"U","NORAD_CAT_ID":"42716","ELEMENT_SET_NO":"999","REV_AT_EPOCH":"4453","BSTAR":"0.00031368000000","MEAN_MOTION_DOT":"0.00034574","MEAN_MOTION_DDOT":"0.0000000000000","SEMIMAJOR_AXIS":"6743.708","PERIOD":"91.856","APOAPSIS":"367.363","PERIAPSIS":"363.782","OBJECT_TYPE":"PAYLOAD","RCS_SIZE":"SMALL","COUNTRY_CODE":"GREC","LAUNCH_DATE":"1998-11-20","SITE":"TTMTR","DECAY_DATE":null,"FILE":"2252109","GP_ID":"118230347","TLE_LINE0":"0 UPSAT","TLE_LINE1":"1 42716U 98067LX  18058.55867989 +.00034574 +00000-0 +31368-3 0  9996","TLE_LINE2":"2 42716 051.6352 191.6147 0002655 211.3974 148.6864 15.67669911044532"},{"CCSDS_OMM_VERS":"2.0","COMMENT":"GENERATED VIA SPACE-TRACK.ORG API","CREATION_DATE":"2018-02-27T23:06:29","ORIGINATOR":"18 SPCS","OBJECT_NAME":"UPSAT","OBJECT_ID":"1998-067LX","CENTER_NAME":"EARTH","REF_FRAME":"TEME","TIME_SYSTEM":"UTC","MEAN_ELEMENT_THEORY":"SGP4","EPOCH":"2018-02-27T19:31:40.471968","MEAN_MOTION":"15.67691400","ECCENTRICITY":"0.00026060","INCLINATION":"51.6352","RA_OF_ASC_NODE":"190.3175","ARG_OF_PERICENTER":"213.1818","MEAN_ANOMALY":"146.9015","EPHEMERIS_TYPE":"0","CLASSIFICATION_TYPE":"U","NORAD_CAT_ID":"42716","ELEMENT_SET_NO":"999","REV_AT_EPOCH":"4457","BSTAR":"0.00035366000000","MEAN_MOTION_DOT":"0.00039110","MEAN_MOTION_DDOT":"0.0000000000000","SEMIMAJOR_AXIS":"6743.646","PERIOD":"91.854","APOAPSIS":"367.268","PERIAPSIS":"363.754","OBJECT_TYPE":"PAYLOAD","RCS_SIZE":"SMALL","COUNTRY_CODE":"GREC","LAUNCH_DATE":"1998-11-20","SITE":"TTMTR","DECAY_DATE":null,"FILE":"2252086","GP_ID":"118220487","TLE_LINE0":"0 UPSAT","TLE_LINE1":"1 42716U 98067LX  18058.81366287  .00039110  00000-0  35366-3 0  9993","TLE_LINE2":"2 42716  51.6352 190.3175 0002606 213.1818 146.9015 15.67691400 44573"},{"CCSDS_OMM_VERS":"2.0","COMMENT":"GENERATED VIA SPACE-TRACK.ORG API","CREATION_DATE":"2018-02-28T22:55:19","ORIGINATOR":"18 SPCS","OBJECT_NAME":"UPSAT","OBJECT_ID":"1998-067LX","CENTER_NAME":"EARTH","REF_FRAME":"TEME","TIME_SYSTEM":"UTC","MEAN_ELEMENT_THEORY":"SGP4","EPOCH":"2018-02-28T13:53:10.531968","MEAN_MOTION":"15.67738934","ECCENTRICITY":"0.00025850","INCLINATION":"51.6355","RA_OF_ASC_NODE":"186.4249","ARG_OF_PERICENTER":"216.5547","MEAN_ANOMALY":"143.5274","EPHEMERIS_TYPE":"0","CLASSIFICATION_TYPE":"U","NORAD_CAT_ID":"42716","ELEMENT_SET_NO":"999","REV_AT_EPOCH":"4469","BSTAR":"0.00028003000000","MEAN_MOTION_DOT":"0.00030877","MEAN_MOTION_DDOT":"0.0000000000000","SEMIMAJOR_AXIS":"6743.510","PERIOD":"91.852","APOAPSIS":"367.118","PERIAPSIS":"363.631","OBJECT_TYPE":"PAYLOAD","RCS_SIZE":"SMALL","COUNTRY_CODE":"GREC","LAUNCH_DATE":"1998-11-20","SITE":"TTMTR","DECAY_DATE":null,"FILE":"2252494","GP_ID":"118254152","TLE_LINE0":"0 UPSAT","TLE_LINE1":"1 42716U 98067LX  18059.57859412 +.00030877 +00000-0 +28003-3 0  9995","TLE_LINE2":"2 42716 051.6355 186.4249 0002585 216.5547 143.5274 15.67738934044693"},{"CCSDS_OMM_VERS":"2.0","COMMENT":"GENERATED VIA SPACE-TRACK.ORG API","CREATION_DATE":"2018-02-28T23:03:10","ORIGINATOR":"18 SPCS","OBJECT_NAME":"UPSAT","OBJECT_ID":"1998-067LX","CENTER_NAME":"EARTH","REF_FRAME":"TEME","TIME_SYSTEM":"UTC","MEAN_ELEMENT_THEORY":"SGP4","EPOCH":"2018-02-28T18:28:32.735712","MEAN_MOTION":"15.67752237","ECCENTRICITY":"0.00025560","INCLINATION":"51.6356","RA_OF_ASC_NODE":"185.4521","ARG_OF_PERICENTER":"218.0769","MEAN_ANOMALY":"142.0047","EPHEMERIS_TYPE":"0","CLASSIFICATION_TYPE":"U","NORAD_CAT_ID":"42716","ELEMENT_SET_NO":"999","REV_AT_EPOCH":"4472","BSTAR":"0.00029006000000","MEAN_MOTION_DOT":"0.00032026","MEAN_MOTION_DDOT":"0.0000000000000","SEMIMAJOR_AXIS":"6743.471","PERIOD":"91.851","APOAPSIS":"367.060","PERIAPSIS":"363.613","OBJECT_TYPE":"PAYLOAD","RCS_SIZE":"SMALL","COUNTRY_CODE":"GREC","LAUNCH_DATE":"1998-11-20","SITE":"TTMTR","DECAY_DATE":null,"FILE":"2252504","GP_ID":"118254634","TLE_LINE0":"0 UPSAT","TLE_LINE1":"1 42716U 98067LX  18059.76982333  .00032026  00000-0  29006-3 0  9997","TLE_LINE2":"2 42716  51.6356 185.4521 0002556 218.0769 142.0047 15.67752237 44725"},{"CCSDS_OMM_VERS":"2.0","COMMENT":"GENERATED VIA SPACE-TRACK.ORG API","CREATION_DATE":"2018-03-01T07:02:25","ORIGINATOR":"18 SPCS","OBJECT_NAME":"UPSAT","OBJECT_ID":"1998-067LX","CENTER_NAME":"EARTH","REF_FRAME":"TEME","TIME_SYSTEM":"UTC","MEAN_ELEMENT_THEORY":"SGP4","EPOCH":"2018-02-28T21:32:07.455264","MEAN_MOTION":"15.67760002","ECCENTRICITY":"0.00025450","INCLINATION":"51.6356","RA_OF_ASC_NODE":"184.8035","ARG_OF_PERICENTER":"218.6385","MEAN_ANOMALY":"141.4429","EPHEMERIS_TYPE":"0","CLASSIFICATION_TYPE":"U","NORAD_CAT_ID":"42716","ELEMENT_SET_NO":"999","REV_AT_EPOCH":"4474","BSTAR":"0.00027738000000","MEAN_MOTION_DOT":"0.00030605","MEAN_MOTION_DDOT":"0.0000000000000","SEMIMAJOR_AXIS":"6743.449","PERIOD":"91.850","APOAPSIS":"367.030","PERIAPSIS":"363.598","OBJECT_TYPE":"PAYLOAD","RCS_SIZE":"SMALL","COUNTRY_CODE":"GREC","LAUNCH_DATE":"1998-11-20","SITE":"TTMTR","DECAY_DATE":null,"FILE":"2252619","GP_ID":"118263919","TLE_LINE0":"0 UPSAT","TLE_LINE1":"1 42716U 98067LX  18059.89730851 +.00030605 +00000-0 +27738-3 0  9998","TLE_LINE2":"2 42716 051.6356 184.8035 0002545 218.6385 141.4429 15.67760002044744"},{"CCSDS_OMM_VERS":"2.0","COMMENT":"GENERATED VIA SPACE-TRACK.ORG API","CREATION_DATE":"2018-03-01T22:39:29","ORIGINATOR":"18 SPCS","OBJECT_NAME":"UPSAT","OBJECT_ID":"1998-067LX","CENTER_NAME":"EARTH","REF_FRAME":"TEME","TIME_SYSTEM":"UTC","MEAN_ELEMENT_THEORY":"SGP4","EPOCH":"2018-03-01T12:50:00.245184","MEAN_MOTION":"15.67797393","ECCENTRICITY":"0.00024880","INCLINATION":"51.6360","RA_OF_ASC_NODE":"181.5602","ARG_OF_PERICENTER":"222.2481","MEAN_ANOMALY":"137.8324","EPHEMERIS_TYPE":"0","CLASSIFICATION_TYPE":"U","NORAD_CAT_ID":"42716","ELEMENT_SET_NO":"999","REV_AT_EPOCH":"4484","BSTAR":"0.00025206000000","MEAN_MOTION_DOT":"0.00027792","MEAN_MOTION_DDOT":"0.0000000000000","SEMIMAJOR_AXIS":"6743.342","PERIOD":"91.848","APOAPSIS":"366.885","PERIAPSIS":"363.529","OBJECT_TYPE":"PAYLOAD","RCS_SIZE":"SMALL","COUNTRY_CODE":"GREC","LAUNCH_DATE":"1998-11-20","SITE":"TTMTR","DECAY_DATE":null,"FILE":"2252882","GP_ID":"118280118","TLE_LINE0":"0 UPSAT","TLE_LINE1":"1 42716U 98067LX  18060.53472506 +.00027792 +00000-0 +25206-3 0  9992","TLE_LINE2":"2 42716 051.6360 181.5602 0002488 222.2481 137.8324 15.67797393044844"},{"CCSDS_OMM_VERS":"2.0","COMMENT":"GENERATED VIA SPACE-TRACK.ORG API","CREATION_DATE":"2018-03-02T19:43:08","ORIGINATOR":"18 SPCS","OBJECT_NAME":"UPSAT","OBJECT_ID":"1998-067LX","CENTER_NAME":"EARTH","REF_FRAME":"TEME","TIME_SYSTEM":"UTC","MEAN_ELEMENT_THEORY":"SGP4","EPOCH":"2018-03-02T11:46:46.947360","MEAN_MOTION":"15.67854575","ECCENTRICITY":"0.00023910","INCLINATION":"51.6363","RA_OF_ASC_NODE":"176.6956","ARG_OF_PERICENTER":"227.6060","MEAN_ANOMALY":"132.4735","EPHEMERIS_TYPE":"0","CLASSIFICATION_TYPE":"U","NORAD_CAT_ID":"42716","ELEMENT_SET_NO":"999","REV_AT_EPOCH":"4499","BSTAR":"0.00025040000000","MEAN_MOTION_DOT":"0.00027670","MEAN_MOTION_DDOT":"0.0000000000000","SEMIMAJOR_AXIS":"6743.178","PERIOD":"91.845","APOAPSIS":"366.655","PERIAPSIS":"363.431","OBJECT_TYPE":"PAYLOAD","RCS_SIZE":"SMALL","COUNTRY_CODE":"GREC","LAUNCH_DATE":"1998-11-20","SITE":"TTMTR","DECAY_DATE":null,"FILE":"2253231","GP_ID":"118297017","TLE_LINE0":"0 UPSAT","TLE_LINE1":"1 42716U 98067LX  18061.49082115 +.00027670 +00000-0 +25040-3 0  9992","TLE_LINE2":"2 42716 051.6363 176.6956 0002391 227.6060 132.4735 15.67854575044998"},{"CCSDS_OMM_VERS":"2.0","COMMENT":"GENERATED VIA SPACE-TRACK.ORG API","CREATION_DATE":"2018-03-03T06:36:24","ORIGINATOR":"18 SPCS","OBJECT_NAME":"UPSAT","OBJECT_ID":"1998-067LX","CENTER_NAME":"EARTH","REF_FRAME":"TEME","TIME_SYSTEM":"UTC","MEAN_ELEMENT_THEORY":"SGP4","EPOCH":"2018-03-02T20:57:28.825056","MEAN_MOTION":"15.67876092","ECCENTRICITY":"0.00023490","INCLINATION":"51.6363","RA_OF_ASC_NODE":"174.7504","ARG_OF_PERICENTER":"230.2158","MEAN_ANOMALY":"129.8632","EPHEMERIS_TYPE":"0","CLASSIFICATION_TYPE":"U","NORAD_CAT_ID":"42716","ELEMENT_SET_NO":"999","REV_AT_EPOCH":"4505","BSTAR":"0.00023979000000","MEAN_MOTION_DOT":"0.00026493","MEAN_MOTION_DDOT":"0.0000000000000","SEMIMAJOR_AXIS":"6743.116","PERIOD":"91.843","APOAPSIS":"366.565","PERIAPSIS":"363.397","OBJECT_TYPE":"PAYLOAD","RCS_SIZE":"SMALL","COUNTRY_CODE":"GREC","LAUNCH_DATE":"1998-11-20","SITE":"TTMTR","DECAY_DATE":null,"FILE":"2253295","GP_ID":"118307287","TLE_LINE0":"0 UPSAT","TLE_LINE1":"1 42716U 98067LX  18061.87325029 +.00026493 +00000-0 +23979-3 0  9999","TLE_LINE2":"2 42716 051.6363 174.7504 0002349 230.2158 129.8632 15.67876092045059"}]